{
  "norad_id": 57504,
  "name": "STARLINK-30213",
  "history": [
    {
      "epoch": "2026-03-28T18:51:25.796736Z",
      "apogee_km": 486.6613967312105,
      "perigee_km": 484.4521109857187,
      "latitude_deg": -2.1067516776276224e-05,
      "longitude_deg": 159.32211897143335,
      "height_km": 485.2553135634451,
      "semi_major_axis_km": 6863.693753858464,
      "eccentricity": 0.00016094,
      "inclination_deg": 42.9998,
      "raan_deg": 268.3808,
      "arg_perigee_deg": 274.069,
      "mean_anomaly_deg": 85.9977,
      "mean_motion_rev_day": 15.26742922
    },
    {
      "epoch": "2026-03-30T03:49:47.496864Z",
      "apogee_km": 486.60455323663336,
      "perigee_km": 484.47132306585627,
      "latitude_deg": -1.3632120800250986e-05,
      "longitude_deg": 15.628369864815243,
      "height_km": 485.20095817314893,
      "semi_major_axis_km": 6863.6749381512445,
      "eccentricity": 0.0001554,
      "inclination_deg": 42.9995,
      "raan_deg": 260.6316,
      "arg_perigee_deg": 276.1271,
      "mean_anomaly_deg": 83.9403,
      "mean_motion_rev_day": 15.267492
    },
    {
      "epoch": "2026-03-30T19:31:53.030208Z",
      "apogee_km": 486.14294014531515,
      "perigee_km": 484.9964265809267,
      "latitude_deg": 2.8689697820268115e-05,
      "longitude_deg": 135.76972094379832,
      "height_km": 485.144874371928,
      "semi_major_axis_km": 6863.706683363121,
      "eccentricity": 8.352e-05,
      "inclination_deg": 42.9985,
      "raan_deg": 256.9408,
      "arg_perigee_deg": 290.5166,
      "mean_anomaly_deg": 69.5596,
      "mean_motion_rev_day": 15.26738608
    }
  ]
}